start=new Date('2023-05-28T00:00:00.000Z').valueOf();
sats=[{"TLE_LINE1":"1 55359U 23013AE  23147.24684337 -.00000273  00000-0 -51010-5 0  9996","ECCENTRICITY":"0.00014140","CENTER_NAME":"EARTH","OBJECT_NAME":"STARLINK-5641","REF_FRAME":"TEME","FILE":"3918755","MEAN_MOTION":"15.02531978","RCS_SIZE":"LARGE","MEAN_ELEMENT_THEORY":"SGP4","EPOCH":"2023-05-27T05:55:27.267168","SEMIMAJOR_AXIS":"6937.229","NORAD_CAT_ID":"55359","TLE_LINE2":"2 55359  43.0044  68.4778 0001414 276.3808  83.6873 15.02531978 18665","SITE":"AFETR","DECAY_DATE":null,"MEAN_MOTION_DDOT":"0.0000000000000","BSTAR":"-0.00000510100000","PERIAPSIS":"558.113","OBJECT_ID":"2023-013AE","COUNTRY_CODE":"US","TIME_SYSTEM":"UTC","PERIOD":"95.838","ARG_OF_PERICENTER":"276.3808","GP_ID":"232636291","OBJECT_TYPE":"PAYLOAD","CLASSIFICATION_TYPE":"U","EPHEMERIS_TYPE":"0","REV_AT_EPOCH":"1866","MEAN_ANOMALY":"83.6873","APOAPSIS":"560.075","LAUNCH_DATE":"2023-01-26","MEAN_MOTION_DOT":"-0.00000273","ELEMENT_SET_NO":"999","RA_OF_ASC_NODE":"68.4778","INCLINATION":"43.0044"},{"ECCENTRICITY":"0.00011850","CENTER_NAME":"EARTH","TLE_LINE1":"1 55360U 23013AF  23147.82933772  .00007423  00000-0  56441-3 0  9995","OBJECT_NAME":"STARLINK-5664","REF_FRAME":"TEME","FILE":"3918518","MEAN_MOTION":"15.02509390","RCS_SIZE":"LARGE","MEAN_ELEMENT_THEORY":"SGP4","NORAD_CAT_ID":"55360","SEMIMAJOR_AXIS":"6937.298","EPOCH":"2023-05-27T19:54:14.779008","TLE_LINE2":"2 55360  43.0053  78.0958 0001185 266.1000  93.9707 15.02509390 19035","SITE":"AFETR","MEAN_MOTION_DDOT":"0.0000000000000","DECAY_DATE":null,"BSTAR":"0.00056441000000","PERIAPSIS":"558.341","OBJECT_ID":"2023-013AF","COUNTRY_CODE":"US","TIME_SYSTEM":"UTC","GP_ID":"232606294","PERIOD":"95.840","ARG_OF_PERICENTER":"266.1000","OBJECT_TYPE":"PAYLOAD","CLASSIFICATION_TYPE":"U","EPHEMERIS_TYPE":"0","MEAN_ANOMALY":"93.9707","REV_AT_EPOCH":"1903","LAUNCH_DATE":"2023-01-26","ELEMENT_SET_NO":"999","MEAN_MOTION_DOT":"0.00007423","APOAPSIS":"559.986","RA_OF_ASC_NODE":"78.0958","INCLINATION":"43.0053"},{"OBJECT_TYPE":"PAYLOAD","CLASSIFICATION_TYPE":"U","EPHEMERIS_TYPE":"0","REV_AT_EPOCH":"130","MEAN_ANOMALY":"7.2095","APOAPSIS":"559.519","MEAN_MOTION_DOT":"-0.00031687","LAUNCH_DATE":"2023-01-26","ELEMENT_SET_NO":"999","INCLINATION":"43.0025","RA_OF_ASC_NODE":"52.1105","DECAY_DATE":null,"MEAN_MOTION_DDOT":"0.0000000000000","BSTAR":"-0.00234070000000","PERIAPSIS":"558.586","OBJECT_ID":"2023-013AG","COUNTRY_CODE":"US","TIME_SYSTEM":"UTC","PERIOD":"95.837","ARG_OF_PERICENTER":"264.7170","GP_ID":"232637792","MEAN_ELEMENT_THEORY":"SGP4","EPOCH":"2023-05-27T22:00:00.999936","SEMIMAJOR_AXIS":"6937.188","NORAD_CAT_ID":"55361","TLE_LINE2":"2 55361  43.0025  52.1105 0000672 264.7170   7.2095 15.02545425  1302","SITE":"AFETR","TLE_LINE1":"1 55361U 23013AG  23147.91667824 -.00031687  00000-0 -23407-2 0  9994","ECCENTRICITY":"0.00006720","CENTER_NAME":"EARTH","OBJECT_NAME":"STARLINK-5665","REF_FRAME":"TEME","FILE":"3918755","MEAN_MOTION":"15.02545425","RCS_SIZE":"LARGE"},{"INCLINATION":"43.0025","RA_OF_ASC_NODE":"52.1394","APOAPSIS":"559.744","LAUNCH_DATE":"2023-01-26","ELEMENT_SET_NO":"999","MEAN_MOTION_DOT":"-0.00034975","REV_AT_EPOCH":"1934","MEAN_ANOMALY":"350.9189","EPHEMERIS_TYPE":"0","CLASSIFICATION_TYPE":"U","OBJECT_TYPE":"PAYLOAD","PERIOD":"95.837","ARG_OF_PERICENTER":"268.9738","GP_ID":"232605803","TIME_SYSTEM":"UTC","COUNTRY_CODE":"US","OBJECT_ID":"2023-013AH","PERIAPSIS":"558.315","BSTAR":"-0.00258580000000","DECAY_DATE":null,"MEAN_MOTION_DDOT":"0.0000000000000","SITE":"AFETR","TLE_LINE2":"2 55362  43.0025  52.1394 0001030 268.9738 350.9189 15.02552855 19348","EPOCH":"2023-05-27T22:00:00.999936","SEMIMAJOR_AXIS":"6937.165","NORAD_CAT_ID":"55362","MEAN_ELEMENT_THEORY":"SGP4","RCS_SIZE":"LARGE","FILE":"3918519","MEAN_MOTION":"15.02552855","REF_FRAME":"TEME","OBJECT_NAME":"STARLINK-5574","TLE_LINE1":"1 55362U 23013AH  23147.91667824 -.00034975  00000-0 -25858-2 0  9990","CENTER_NAME":"EARTH","ECCENTRICITY":"0.00010300"},{"COUNTRY_CODE":"US","TIME_SYSTEM":"UTC","GP_ID":"232636791","ARG_OF_PERICENTER":"267.0575","PERIOD":"95.838","MEAN_MOTION_DDOT":"0.0000000000000","DECAY_DATE":null,"BSTAR":"0.00003610500000","PERIAPSIS":"558.451","OBJECT_ID":"2023-013AJ","MEAN_ANOMALY":"93.0163","REV_AT_EPOCH":"1860","LAUNCH_DATE":"2023-01-26","ELEMENT_SET_NO":"999","MEAN_MOTION_DOT":"0.00000284","APOAPSIS":"559.719","RA_OF_ASC_NODE":"78.4541","INCLINATION":"43.0039","OBJECT_TYPE":"PAYLOAD","CLASSIFICATION_TYPE":"U","EPHEMERIS_TYPE":"0","RCS_SIZE":"LARGE","ECCENTRICITY":"0.00009140","CENTER_NAME":"EARTH","TLE_LINE1":"1 55363U 23013AJ  23147.87595259  .00000284  00000-0  36105-4 0  9991","OBJECT_NAME":"STARLINK-5648","REF_FRAME":"TEME","FILE":"3918755","MEAN_MOTION":"15.02534998","SITE":"AFETR","MEAN_ELEMENT_THEORY":"SGP4","NORAD_CAT_ID":"55363","SEMIMAJOR_AXIS":"6937.220","EPOCH":"2023-05-27T21:01:22.303776","TLE_LINE2":"2 55363  43.0039  78.4541 0000914 267.0575  93.0163 15.02534998 18601"},{"RCS_SIZE":"LARGE","ECCENTRICITY":"0.00016530","CENTER_NAME":"EARTH","TLE_LINE1":"1 55364U 23013AK  23147.84291234 -.00000039  00000-0  12163-4 0  9992","OBJECT_NAME":"STARLINK-5627","REF_FRAME":"TEME","FILE":"3918519","MEAN_MOTION":"15.02539602","SITE":"AFETR","MEAN_ELEMENT_THEORY":"SGP4","NORAD_CAT_ID":"55364","EPOCH":"2023-05-27T20:13:47.626176","SEMIMAJOR_AXIS":"6937.205","TLE_LINE2":"2 55364  43.0038  65.2085 0001653 266.0378  94.0275 15.02539602 19185","COUNTRY_CODE":"US","TIME_SYSTEM":"UTC","GP_ID":"232606312","ARG_OF_PERICENTER":"266.0378","PERIOD":"95.838","MEAN_MOTION_DDOT":"0.0000000000000","DECAY_DATE":null,"BSTAR":"0.00001216300000","PERIAPSIS":"557.924","OBJECT_ID":"2023-013AK","MEAN_ANOMALY":"94.0275","REV_AT_EPOCH":"1918","LAUNCH_DATE":"2023-01-26","MEAN_MOTION_DOT":"-0.00000039","ELEMENT_SET_NO":"999","APOAPSIS":"560.217","INCLINATION":"43.0038","RA_OF_ASC_NODE":"65.2085","OBJECT_TYPE":"PAYLOAD","CLASSIFICATION_TYPE":"U","EPHEMERIS_TYPE":"0"},{"MEAN_ELEMENT_THEORY":"SGP4","TLE_LINE2":"2 55365  43.0046  78.3968 0001384 267.6259  92.4425 15.02533254 19036","NORAD_CAT_ID":"55365","SEMIMAJOR_AXIS":"6937.225","EPOCH":"2023-05-27T20:51:46.993824","SITE":"AFETR","OBJECT_NAME":"STARLINK-5639","CENTER_NAME":"EARTH","ECCENTRICITY":"0.00013840","TLE_LINE1":"1 55365U 23013AL  23147.86929391 -.00000537  00000-0 -24696-4 0  9995","FILE":"3918519","MEAN_MOTION":"15.02533254","REF_FRAME":"TEME","RCS_SIZE":"LARGE","OBJECT_TYPE":"PAYLOAD","EPHEMERIS_TYPE":"0","CLASSIFICATION_TYPE":"U","ELEMENT_SET_NO":"999","LAUNCH_DATE":"2023-01-26","MEAN_MOTION_DOT":"-0.00000537","APOAPSIS":"560.050","MEAN_ANOMALY":"92.4425","REV_AT_EPOCH":"1903","RA_OF_ASC_NODE":"78.3968","INCLINATION":"43.0046","BSTAR":"-0.00002469600000","MEAN_MOTION_DDOT":"0.0000000000000","DECAY_DATE":null,"OBJECT_ID":"2023-013AL","PERIAPSIS":"558.130","TIME_SYSTEM":"UTC","COUNTRY_CODE":"US","GP_ID":"232606301","PERIOD":"95.838","ARG_OF_PERICENTER":"267.6259"},{"SITE":"AFETR","SEMIMAJOR_AXIS":"6937.194","EPOCH":"2023-05-27T22:00:00.999936","NORAD_CAT_ID":"55366","TLE_LINE2":"2 55366  43.0025  52.1681 0001171 261.6992 346.1798 15.02543476 19341","MEAN_ELEMENT_THEORY":"SGP4","RCS_SIZE":"LARGE","REF_FRAME":"TEME","MEAN_MOTION":"15.02543476","FILE":"3918520","TLE_LINE1":"1 55366U 23013AM  23147.91667824 -.00026783  00000-0 -19748-2 0  9993","ECCENTRICITY":"0.00011710","CENTER_NAME":"EARTH","OBJECT_NAME":"STARLINK-5654","INCLINATION":"43.0025","RA_OF_ASC_NODE":"52.1681","REV_AT_EPOCH":"1934","MEAN_ANOMALY":"346.1798","APOAPSIS":"559.871","MEAN_MOTION_DOT":"-0.00026783","LAUNCH_DATE":"2023-01-26","ELEMENT_SET_NO":"999","CLASSIFICATION_TYPE":"U","EPHEMERIS_TYPE":"0","OBJECT_TYPE":"PAYLOAD","ARG_OF_PERICENTER":"261.6992","PERIOD":"95.837","GP_ID":"232606322","COUNTRY_CODE":"US","TIME_SYSTEM":"UTC","PERIAPSIS":"558.246","OBJECT_ID":"2023-013AM","DECAY_DATE":null,"MEAN_MOTION_DDOT":"0.0000000000000","BSTAR":"-0.00197480000000"},{"OBJECT_TYPE":"PAYLOAD","EPHEMERIS_TYPE":"0","CLASSIFICATION_TYPE":"U","MEAN_MOTION_DOT":"0.00000216","LAUNCH_DATE":"2023-01-26","ELEMENT_SET_NO":"999","APOAPSIS":"560.087","MEAN_ANOMALY":"92.3581","REV_AT_EPOCH":"1890","RA_OF_ASC_NODE":"52.3396","INCLINATION":"43.0038","BSTAR":"0.00003105500000","MEAN_MOTION_DDOT":"0.0000000000000","DECAY_DATE":null,"OBJECT_ID":"2023-013AN","PERIAPSIS":"558.097","TIME_SYSTEM":"UTC","COUNTRY_CODE":"US","GP_ID":"232636292","ARG_OF_PERICENTER":"267.7097","PERIOD":"95.838","MEAN_ELEMENT_THEORY":"SGP4","TLE_LINE2":"2 55367  43.0038  52.3396 0001434 267.7097  92.3581 15.02532544 18901","NORAD_CAT_ID":"55367","EPOCH":"2023-05-27T20:39:44.100576","SEMIMAJOR_AXIS":"6937.227","SITE":"AFETR","OBJECT_NAME":"STARLINK-5635","ECCENTRICITY":"0.00014340","CENTER_NAME":"EARTH","TLE_LINE1":"1 55367U 23013AN  23147.86092709  .00000216  00000-0  31055-4 0  9990","FILE":"3918755","MEAN_MOTION":"15.02532544","REF_FRAME":"TEME","RCS_SIZE":"LARGE"},{"GP_ID":"232636542","PERIOD":"95.838","ARG_OF_PERICENTER":"256.7610","TIME_SYSTEM":"UTC","COUNTRY_CODE":"US","OBJECT_ID":"2023-013AP","PERIAPSIS":"558.320","BSTAR":"-0.00006892200000","MEAN_MOTION_DDOT":"0.0000000000000","DECAY_DATE":null,"INCLINATION":"43.0042","RA_OF_ASC_NODE":"52.3561","LAUNCH_DATE":"2023-01-26","MEAN_MOTION_DOT":"-0.00001134","ELEMENT_SET_NO":"999","APOAPSIS":"559.841","MEAN_ANOMALY":"103.3110","REV_AT_EPOCH":"1890","EPHEMERIS_TYPE":"0","CLASSIFICATION_TYPE":"U","OBJECT_TYPE":"PAYLOAD","RCS_SIZE":"LARGE","MEAN_MOTION":"15.02536383","FILE":"3918755","REF_FRAME":"TEME","OBJECT_NAME":"STARLINK-5625","ECCENTRICITY":"0.00010960","CENTER_NAME":"EARTH","TLE_LINE1":"1 55368U 23013AP  23147.86314681 -.00001134  00000-0 -68922-4 0  9992","SITE":"AFETR","TLE_LINE2":"2 55368  43.0042  52.3561 0001096 256.7610 103.3110 15.02536383 18900","NORAD_CAT_ID":"55368","EPOCH":"2023-05-27T20:42:55.884384","SEMIMAJOR_AXIS":"6937.215","MEAN_ELEMENT_THEORY":"SGP4"}];
